CRYOSAT 2               
1 36508U 10013A   21183.76147384  .00000094  00000-0  22507-4 0  9995
2 36508  92.0104 199.5504 0006285  20.8353 339.3109 14.51909186595433
SES-1                   
1 36516U 10016A   21183.50158127 -.00000114  00000-0  00000+0 0  9999
2 36516   0.0409 293.6425 0002800 164.2756 262.3945  1.00271903 40983
COSMOS 2463             
1 36519U 10017A   21183.59924130  .00000095  00000-0  88436-4 0  9998
2 36519  82.9602 139.7875 0037616 112.2289 248.2862 13.71457508559834
ASTRA 3B                
1 36581U 10021A   21183.63696838  .00000138  00000-0  00000+0 0  9992
2 36581   0.0813 301.6173 0004106 179.9213  52.1379  1.00273232 40495
COMSATBW-2              
1 36582U 10021B   21183.27606876  .00000088  00000-0  00000-0 0  9991
2 36582   0.0263  36.1165 0002758  82.4833 274.4732  1.00273453 40793
NAVSTAR 65 (USA 213)    
1 36585U 10022A   21183.12286744 -.00000067  00000-0  00000-0 0  9995
2 36585  55.0336 281.6486 0096546  54.9554 309.8741  2.00571333 81272
BADR-5                  
1 36592U 10025A   21183.63749179  .00000146  00000-0  00000+0 0  9994
2 36592   0.0292 121.3410 0004913   1.8189  53.2231  1.00275191 40743
SJ-12                   
1 36596U 10027A   21183.73541720 -.00000030  00000-0  24162-5 0  9997
2 36596  97.6863 171.5209 0013114 118.5068 241.7476 14.97001675602722
TANDEM-X                
1 36605U 10030A   21183.88960714  .00000323  00000-0  18579-4 0  9994
2 36605  97.4445 191.4790 0001953  87.8442  29.8264 15.19153068611791
COMS 1                  
1 36744U 10032A   21183.51432164 -.00000344  00000-0  00000-0 0  9993
2 36744   0.2484  95.2147 0000825   8.4937 130.3598  1.00273096 32932
ARABSAT-5A              
1 36745U 10032B   21183.85369789  .00000155  00000-0  00000+0 0  9991
2 36745   0.0608  42.1151 0005140  81.7298 135.0529  1.00272147 40474
ECHOSTAR 15             
1 36792U 10034A   21183.56686012 -.00000281  00000-0  00000+0 0  9995
2 36792   0.0422 274.7612 0002366 150.3831 358.0725  1.00272899 40242
CARTOSAT-2B             
1 36795U 10035A   21183.12799127 -.00016842  00000-0 -22957-2 0  9992
2 36795  97.9233 241.4766 0012118 297.8586  61.8626 14.78642782592298
AISSAT 1                
1 36797U 10035C   21183.40796030  .00000239  00000-0  33656-4 0  9996
2 36797  98.2183 349.9041 0010107 223.3073 136.7348 14.86513683594436
ALSAT 2A                
1 36798U 10035D   21183.74587909  .00000066  00000-0  19544-4 0  9995
2 36798  97.9130 231.4548 0001514  86.1420 273.9955 14.68239886587514
TISAT 1                 
1 36799U 10035E   21183.47623832  .00000783  00000-0  83694-4 0  9995
2 36799  98.2058  14.9012 0012542 158.4201 201.7547 14.91766108595570
BEIDOU 5                
1 36828U 10036A   21183.62657907 -.00000029  00000-0  00000-0 0  9996
2 36828  54.1799 179.4532 0114450 235.6328 208.7899  1.00255760 40068
NILESAT 201             
1 36830U 10037A   21183.34384625 -.00000058  00000-0  00000+0 0  9994
2 36830   0.0538 168.4993 0006168 291.7250 297.1274  1.00272223 40134
RASCOM-QAF 1R           
1 36831U 10037B   21183.85743701  .00000020  00000-0  00000+0 0  9993
2 36831   0.0222  82.9157 0004562  18.8892 130.8632  1.00272287 40134
YAOGAN 10               
1 36834U 10038A   21183.79606039  .00000053  00000-0  13663-4 0  9992
2 36834  97.9784 191.2191 0001405  90.4875 269.6499 14.81054602589027
AEHF-1 (USA 214)        
1 36868U 10039A   21183.20674333  .00000023  00000-0  00000+0 0  9991
2 36868   3.6630  91.6178 0007226   9.7384 257.5137  1.00267740 40271
TIANHUI 1               
1 36985U 10040A   21183.81855716  .00001035  00000-0  43399-4 0  9993
2 36985  97.7076  25.4633 0032580  87.1781  36.4136 15.25491603603820
COSMOS 2464 [GLONASS-M] 
1 37139U 10041C   21183.48583402 -.00000009  00000-0  00000+0 0  9997
2 37139  64.0555 252.6429 0026659   8.1376  78.1876  2.13100662 84294
CHINASAT 6A (ZX 6A)     
1 37150U 10042A   21183.37019150 -.00000354  00000-0  00000-0 0  9997
2 37150   0.0475 123.4689 0002029 307.9161 107.5322  1.00268837 39745
COSMOS 2467             
1 37152U 10043A   21183.52595677  .00000009  00000-0 -60186-5 0  9993
2 37152  82.4575 117.5968 0002144  95.0248 265.1082 12.42901085490613
STRELA 3                
1 37153U 10043B   21183.57754148 -.00000001  00000-0 -79534-4 0  9998
2 37153  82.4580 126.2431 0008670  56.6759 303.5154 12.40741332489892
COSMOS 2468             
1 37154U 10043C   21183.50732718  .00000010  00000-0 -64290-6 0  9995
2 37154  82.4605 115.8823 0013453 302.6719  57.3063 12.43664535490869
QZS-1 (MICHIBIKI-1)     
1 37158U 10045A   21183.73054593 -.00000135  00000-0  00000+0 0  9994
2 37158  41.9815 138.2472 0761245 270.7249 275.6246  1.00263674 39561
YAOGAN 11               
1 37165U 10047A   21183.35230923  .00000149  00000-0  29384-4 0  9990
2 37165  98.3091 305.5905 0037495 269.0754  90.6158 14.76338351580476
ZHEDA PIXING 1B         
1 37166U 10047B   21183.68587224  .00000143  00000-0  24919-4 0  9999
2 37166  97.7146 166.0431 0025202  93.9330 266.4759 14.81091289582061
ZHEDA PIXING 1C         
1 37167U 10047C   21183.67192036  .00000145  00000-0  25225-4 0  9995
2 37167  97.7447 162.7786 0024756  93.8481 266.5558 14.80963995582026
SBSS (USA 216)          
1 37168U 10048A   21183.84133308  .00000061  00000-0  14355-4 0  9992
2 37168  97.8621  44.9671 0002158 103.3674 312.8147 14.81656924581984
SJ-6G                   
1 37179U 10051A   21183.68916740 -.00000420  00000-0 -34134-4 0  9997
2 37179  97.7239 167.2682 0011188 203.0664 157.0071 14.93928393585132
SJ-6H                   
1 37180U 10051B   21183.72413508  .00000559  00000-0  58506-4 0  9998
2 37180  97.7312 166.6942 0010686 222.3118 137.7274 14.93480937585056
XM-5                    
1 37185U 10053A   21182.88035523 -.00000207  00000-0  00000+0 0  9990
2 37185   0.0061 128.3455 0003849 106.5526 277.0142  1.00272948 39288
GLOBALSTAR M079         
1 37188U 10054A   21183.85565382 -.00000096  00000-0  43569-4 0  9991
2 37188  52.0022 219.6162 0000113 218.4830 312.7587 12.62266516494601
GLOBALSTAR M074         
1 37189U 10054B   21183.88204191 -.00000107  00000-0 -15694-4 0  9995
2 37189  51.9991 219.0829 0000169 223.0929 308.5589 12.62264915494607
GLOBALSTAR M076         
1 37190U 10054C   21183.82896178 -.00000094  00000-0  54044-4 0  9999
2 37190  52.0017 219.2813 0000384  45.6370 125.3608 12.62267582494602
GLOBALSTAR M077         
1 37191U 10054D   21183.49271111 -.00000111  00000-0 -38747-4 0  9990
2 37191  52.0052 176.7452 0000147   1.1929 141.1133 12.62268204494579
GLOBALSTAR M075         
1 37192U 10054E   21183.75806640 -.00000103  00000-0  39647-5 0  9992
2 37192  51.9943 262.5564 0000334 125.4162  23.0368 12.62266273493832
GLOBALSTAR M073         
1 37193U 10054F   21183.76390697 -.00000100  00000-0  20148-4 0  9996
2 37193  52.0031 175.2605 0000151   8.3242 165.7218 12.62267308495340
BSAT-3B                 
1 37207U 10056B   21183.51065773 -.00000350  00000-0  00000-0 0  9999
2 37207   0.0768 303.4669 0001169  59.2453 211.7344  1.00272940 33988
BEIDOU 6                
1 37210U 10057A   21183.78313050 -.00000111  00000-0  00000+0 0  9991
2 37210   0.8663  49.7497 0004664 116.5345 196.6162  1.00273329 39137
FENGYUN 3B              
1 37214U 10059A   21183.51090388 -.00000010  00000-0  18339-4 0  9991
2 37214  99.0786 177.8935 0015899 272.0749  87.8604 14.15990533551465
COSMO-SKYMED 4          
1 37216U 10060A   21183.67603511 -.00000646  00000-0 -74604-4 0  9993
2 37216  97.8899   7.3468 0001496  89.6755 270.4623 14.82149334576448
SKYTERRA 1              
1 37218U 10061A   21183.50150774 -.00000118  00000-0  00000-0 0  9994
2 37218   2.1636  17.9628 0001470  69.6141 272.4029  1.00271322 39032
ZHONGXING-20A           
1 37234U 10064A   21183.51397270 -.00000351  00000-0  00000-0 0  9999
2 37234   1.7820  92.5541 0003616  14.6046 124.9592  1.00266643 38878
HYLAS 1                 
1 37237U 10065A   21183.52042816 -.00000122  00000-0  00000-0 0  9993
2 37237   1.0482  93.7973 0002063   1.1095 171.9678  1.00271582 38820
INTELSAT 17 (IS-17)     
1 37238U 10065B   21183.50191101 -.00000001  00000-0  00000-0 0  9990
2 37238   0.0034 269.8100 0002548 198.5079  59.1174  1.00271577 35090
BEIDOU 7                
1 37256U 10068A   21183.22450822 -.00000237  00000-0  00000-0 0  9991
2 37256  50.8357 293.8255 0086439 215.5782 328.0505  1.00248764 38632
EUTELSAT KA-SAT 9A      
1 37258U 10069A   21183.34698675  .00000061  00000-0  00000+0 0  9990
2 37258   0.0773 271.5657 0006312 201.7316 301.2108  1.00269568 38664
HISPASAT 30W-5          
1 37264U 10070A   21183.84165934 -.00000214  00000-0  00000+0 0  9992
2 37264   0.0246 117.6483 0005827   1.2518  75.1592  1.00274228 38517
KOREASAT 6              
1 37265U 10070B   21183.36835955 -.00000362  00000-0  00000-0 0  9992
2 37265   0.0099   9.3525 0002187  87.5508  72.3144  1.00273800 38618
COSMOS 2471 [GLONASS-K] 
1 37372U 11009A   21183.34783535 -.00000061  00000-0  00000+0 0  9993
2 37372  65.9361  15.0607 0014462 226.0309 315.5973  2.13052369 80509
BEIDOU 8                
1 37384U 11013A   21183.35107655 -.00000217  00000-0  00000-0 0  9999
2 37384  59.7954  57.7568 0052141 204.9066 259.5668  1.00249371 37518
RESOURCESAT-2           
1 37387U 11015A   21183.76068289  .00000008  00000-0  23126-4 0  9993
2 37387  98.6405 257.5209 0004257  20.2884 339.8460 14.21663114529473
YOUTHSAT                
1 37388U 11015B   21183.75433538 -.00000004  00000-0  15940-4 0  9998
2 37388  98.3684 225.0534 0013537 255.7315 221.1165 14.24319128530356
X-SAT                   
1 37389U 11015C   21183.75783074 -.00000027  00000-0  64418-5 0  9992
2 37389  98.3804 228.8839 0012823 256.5995 103.3753 14.24390276530425
INTELSAT NEW DAWN       
1 37392U 11016A   21183.63888757  .00000157  00000-0  00000+0 0  9992
2 37392   0.0401 200.2967 0001432 297.4929  45.8887  1.00274634 37365
